TYVAK-182A              
1 48271U 21034D   26068.71131789  .00007163  00000+0  50673-3 0  9991
2 48271  97.5843 129.3711 0004862 316.5650  43.5193 15.05150420264864
STARLINK-6260           
1 56416U 23061AU  26067.58302806  .00001342  00000+0  11444-3 0  9993
2 56416  43.0055 177.8685 0001585 278.7098  81.3565 15.02527641156882
